STARLINK-37389          
1 68778U 26086N   26117.62454308 -.00753770  18386-3 -19346-2 0  9992
2 68778  97.2790 153.0572 0001142 191.8357 168.2892 15.95238353  1198
