{
  "norad_id": 68778,
  "name": "STARLINK-37389",
  "history": [
    {
      "epoch": "2026-04-27T14:59:20.522112Z",
      "apogee_km": 288.4116218656718,
      "perigee_km": 286.8890227255133,
      "latitude_deg": -2.4127595909385027e-05,
      "longitude_deg": 72.61001452603267,
      "height_km": 291.5912825106212,
      "semi_major_axis_km": 6665.787322295592,
      "eccentricity": 0.00011421,
      "inclination_deg": 97.279,
      "raan_deg": 153.0572,
      "arg_perigee_deg": 191.8357,
      "mean_anomaly_deg": 168.2892,
      "mean_motion_rev_day": 15.95238353
    }
  ]
}